OBJECT_NAME,OBJECT_ID,EPOCH,MEAN_MOTION,ECCENTRICITY,INCLINATION,RA_OF_ASC_NODE,ARG_OF_PERICENTER,MEAN_ANOMALY,EPHEMERIS_TYPE,CLASSIFICATION_TYPE,NORAD_CAT_ID,ELEMENT_SET_NO,REV_AT_EPOCH,BSTAR,MEAN_MOTION_DOT,MEAN_MOTION_DDOT
ONEWEB-0063,2020-020AA,2026-06-06T15:28:48.228096,13.11416871,.0002114,87.8904,23.1661,89.0627,271.0743,0,U,45448,999,30131,-.11112E-2,-.381E-5,0
ONEWEB-0019,2020-020AB,2026-06-06T14:34:42.575808,13.11417746,.0001641,87.8902,23.1600,90.5375,269.5941,0,U,45449,999,30115,.12361E-2,.451E-5,0
ONEWEB-0094,2020-020AC,2026-06-06T13:43:28.877664,13.17650245,.0001647,87.9153,7.9600,82.6762,277.4556,0,U,45450,999,30491,-.13368E-4,.8E-7,0
ONEWEB-0087,2020-020AD,2026-06-06T13:53:10.855968,13.11417583,.0001815,87.8921,23.1519,74.7775,285.3554,0,U,45451,999,30119,-.12484E-2,-.43E-5,0
ONEWEB-0082,2020-020AE,2026-06-06T13:48:19.116864,13.11417022,.0002037,87.8910,23.1714,72.8379,287.2972,0,U,45452,999,30128,-.17106E-2,-.594E-5,0
ONEWEB-0050,2020-020AF,2026-06-06T14:25:24.246912,14.90337255,.0004744,88.9300,234.6475,50.2077,309.9569,0,U,45453,999,33880,.2946E-3,.2884E-4,0
ONEWEB-0034,2020-020AG,2026-06-06T14:41:18.350016,13.10936092,.0001807,87.8914,23.1722,86.0879,274.0455,0,U,45454,999,30120,.17392E-2,.625E-5,0
ONEWEB-0060,2020-020AH,2026-06-06T20:56:58.801056,13.11415248,.000178,87.8895,23.1194,51.0749,309.0537,0,U,45455,999,30119,-.9361E-3,-.319E-5,0
ONEWEB-0086,2020-020AJ,2026-06-06T20:26:21.382368,13.11454931,.0001387,87.8908,23.1183,68.2950,291.8325,0,U,45456,999,30125,.14435E-2,.525E-5,0
ONEWEB-0088,2020-020AK,2026-06-06T14:25:08.517792,13.11418843,.0002215,87.8917,23.1399,84.9179,275.2202,0,U,45457,999,30115,.52352E-3,.198E-5,0
ONEWEB-0102,2020-100A,2026-06-06T18:22:37.476192,13.12443924,.0001457,87.8944,352.7490,90.9359,269.1937,0,U,47258,999,26336,.11097E-2,.412E-5,0
ONEWEB-0109,2020-100B,2026-06-06T18:34:49.291104,13.12442556,.0001706,87.8954,352.7297,93.6992,266.4331,0,U,47259,999,26319,.41136E-3,.161E-5,0
ONEWEB-0110,2020-100C,2026-06-06T19:13:50.649888,13.12443713,.0001596,87.8952,352.7089,83.3339,276.7971,0,U,47260,999,26336,-.10765E-2,-.375E-5,0
ONEWEB-0111,2020-100D,2026-06-06T19:57:45.105120,13.12445042,.0001806,87.8949,352.7213,85.4980,274.6355,0,U,47261,999,26320,.10713E-2,.398E-5,0
ONEWEB-0114,2020-100E,2026-06-06T18:51:53.336736,13.12443062,.0001932,87.8953,352.7274,96.2876,263.8472,0,U,47262,999,26315,-.48592E-3,-.162E-5,0
ONEWEB-0117,2020-100F,2026-06-06T15:00:08.174304,13.12441552,.0001747,87.8954,352.7514,90.8098,269.3230,0,U,47263,999,26314,.44262E-4,.29E-6,0
ONEWEB-0118,2020-100G,2026-06-06T13:59:08.174400,13.12443735,.0002085,87.8947,352.7620,94.6094,265.5272,0,U,47264,999,26333,-.50565E-3,-.169E-5,0
ONEWEB-0119,2020-100H,2026-06-06T12:45:58.104000,13.12442300,.0001762,87.8938,352.7890,84.4285,275.7045,0,U,47265,999,26330,.1192E-2,.442E-5,0
ONEWEB-0120,2020-100J,2026-06-06T18:49:39.593856,13.12442337,.0001737,87.8943,352.7406,95.0785,265.0541,0,U,47266,999,26336,-.50317E-3,-.168E-5,0
ONEWEB-0121,2020-100K,2026-06-06T18:32:23.040960,13.12442144,.0001815,87.8954,352.7280,78.5185,281.6148,0,U,47267,999,26327,.69502E-3,.263E-5,0
ONEWEB-0122,2020-100L,2026-06-06T20:13:38.305344,13.12441313,.0001597,87.8953,352.7183,91.0398,269.0914,0,U,47268,999,26319,.12061E-2,.447E-5,0
ONEWEB-0123,2020-100M,2026-06-06T20:07:32.117088,13.12443361,.0001869,87.8943,352.7279,90.0125,270.1218,0,U,47269,999,26333,.13727E-2,.507E-5,0
ONEWEB-0124,2020-100N,2026-06-06T12:33:46.227744,13.12443952,.000182,87.8938,352.7937,85.7060,274.4277,0,U,47270,999,26317,.89573E-3,.335E-5,0
ONEWEB-0125,2020-100P,2026-06-06T19:21:09.832320,13.12444841,.0002058,87.8950,352.7197,83.2735,276.8627,0,U,47271,999,26327,-.98109E-3,-.34E-5,0
ONEWEB-0126,2020-100Q,2026-06-06T14:21:18.705024,13.12443107,.0001798,87.8944,352.7772,93.8298,266.3037,0,U,47272,999,26331,.94742E-3,.354E-5,0
ONEWEB-0127,2020-100R,2026-06-06T19:01:38.673408,13.12442564,.0001722,87.8942,352.7375,93.5979,266.5346,0,U,47273,999,26336,-.11256E-2,-.392E-5,0
ONEWEB-0128,2020-100S,2026-06-06T19:33:21.464064,13.12443454,.0001565,87.8938,352.7475,81.3815,278.7491,0,U,47274,999,26338,-.34169E-3,-.11E-5,0
ONEWEB-0129,2020-100T,2026-06-06T19:04:05.022912,13.12442108,.000191,87.8952,352.7236,124.9459,235.1849,0,U,47275,999,26331,-.11897E-2,-.415E-5,0
ONEWEB-0130,2020-100U,2026-06-06T19:43:07.993920,13.12444183,.0001691,87.8951,352.7140,90.1640,269.9683,0,U,47276,999,26328,.42729E-3,.166E-5,0
ONEWEB-0131,2020-100V,2026-06-06T19:38:14.475840,13.12445197,.0001741,87.8937,352.7341,88.0156,272.1172,0,U,47277,999,26332,.35979E-3,.142E-5,0
