ONEWEB-0063             
1 45448U 20020AA  26157.64500264 -.00000381  00000+0 -11112-2 0  9998
2 45448  87.8904  23.1661 0002114  89.0627 271.0743 13.11416871301317
ONEWEB-0019             
1 45449U 20020AB  26157.60743722  .00000451  00000+0  12361-2 0  9996
2 45449  87.8902  23.1600 0001641  90.5375 269.5941 13.11417746301156
ONEWEB-0094             
1 45450U 20020AC  26157.57186201  .00000008  00000+0 -13368-4 0  9996
2 45450  87.9153   7.9600 0001647  82.6762 277.4556 13.17650245304911
ONEWEB-0087             
1 45451U 20020AD  26157.57859787 -.00000430  00000+0 -12484-2 0  9999
2 45451  87.8921  23.1519 0001815  74.7775 285.3554 13.11417583301199
ONEWEB-0082             
1 45452U 20020AE  26157.57522126 -.00000594  00000+0 -17106-2 0  9991
2 45452  87.8910  23.1714 0002037  72.8379 287.2972 13.11417022301284
ONEWEB-0050             
1 45453U 20020AF  26157.60097508  .00002884  00000+0  29460-3 0  9996
2 45453  88.9300 234.6475 0004744  50.2077 309.9569 14.90337255338804
ONEWEB-0034             
1 45454U 20020AG  26157.61201794  .00000625  00000+0  17392-2 0  9993
2 45454  87.8914  23.1722 0001807  86.0879 274.0455 13.10936092301209
ONEWEB-0060             
1 45455U 20020AH  26157.87290279 -.00000319  00000+0 -93610-3 0  9998
2 45455  87.8895  23.1194 0001780  51.0749 309.0537 13.11415248301193
ONEWEB-0086             
1 45456U 20020AJ  26157.85163637  .00000525  00000+0  14435-2 0  9998
2 45456  87.8908  23.1183 0001387  68.2950 291.8325 13.11454931301256
ONEWEB-0088             
1 45457U 20020AK  26157.60079303  .00000198  00000+0  52352-3 0  9995
2 45457  87.8917  23.1399 0002215  84.9179 275.2202 13.11418843301156
ONEWEB-0102             
1 47258U 20100A   26157.76571153  .00000412  00000+0  11097-2 0  9991
2 47258  87.8944 352.7490 0001457  90.9359 269.1937 13.12443924263360
ONEWEB-0109             
1 47259U 20100B   26157.77418161  .00000161  00000+0  41136-3 0  9991
2 47259  87.8954 352.7297 0001706  93.6992 266.4331 13.12442556263196
ONEWEB-0110             
1 47260U 20100C   26157.80128067 -.00000375  00000+0 -10765-2 0  9992
2 47260  87.8952 352.7089 0001596  83.3339 276.7971 13.12443713263362
ONEWEB-0111             
1 47261U 20100D   26157.83177205  .00000398  00000+0  10713-2 0  9990
2 47261  87.8949 352.7213 0001806  85.4980 274.6355 13.12445042263200
ONEWEB-0114             
1 47262U 20100E   26157.78603399 -.00000162  00000+0 -48592-3 0  9991
2 47262  87.8953 352.7274 0001932  96.2876 263.8472 13.12443062263151
ONEWEB-0117             
1 47263U 20100F   26157.62509461  .00000029  00000+0  44262-4 0  9991
2 47263  87.8954 352.7514 0001747  90.8098 269.3230 13.12441552263144
ONEWEB-0118             
1 47264U 20100G   26157.58273350 -.00000169  00000+0 -50565-3 0  9991
2 47264  87.8947 352.7620 0002085  94.6094 265.5272 13.12443735263339
ONEWEB-0119             
1 47265U 20100H   26157.53192250  .00000442  00000+0  11920-2 0  9999
2 47265  87.8938 352.7890 0001762  84.4285 275.7045 13.12442300263304
ONEWEB-0120             
1 47266U 20100J   26157.78448604 -.00000168  00000+0 -50317-3 0  9995
2 47266  87.8943 352.7406 0001737  95.0785 265.0541 13.12442337263368
ONEWEB-0121             
1 47267U 20100K   26157.77248890  .00000263  00000+0  69502-3 0  9990
2 47267  87.8954 352.7280 0001815  78.5185 281.6148 13.12442144263271
ONEWEB-0122             
1 47268U 20100L   26157.84280446  .00000447  00000+0  12061-2 0  9993
2 47268  87.8953 352.7183 0001597  91.0398 269.0914 13.12441313263195
ONEWEB-0123             
1 47269U 20100M   26157.83856617  .00000507  00000+0  13727-2 0  9999
2 47269  87.8943 352.7279 0001869  90.0125 270.1218 13.12443361263331
ONEWEB-0124             
1 47270U 20100N   26157.52345171  .00000335  00000+0  89573-3 0  9997
2 47270  87.8938 352.7937 0001820  85.7060 274.4277 13.12443952263174
ONEWEB-0125             
1 47271U 20100P   26157.80636380 -.00000340  00000+0 -98109-3 0  9997
2 47271  87.8950 352.7197 0002058  83.2735 276.8627 13.12444841263277
ONEWEB-0126             
1 47272U 20100Q   26157.59813316  .00000354  00000+0  94742-3 0  9992
2 47272  87.8944 352.7772 0001798  93.8298 266.3037 13.12443107263319
ONEWEB-0127             
1 47273U 20100R   26157.79280872 -.00000392  00000+0 -11256-2 0  9992
2 47273  87.8942 352.7375 0001722  93.5979 266.5346 13.12442564263363
ONEWEB-0128             
1 47274U 20100S   26157.81483176 -.00000110  00000+0 -34169-3 0  9995
2 47274  87.8938 352.7475 0001565  81.3815 278.7491 13.12443454263386
ONEWEB-0129             
1 47275U 20100T   26157.79450258 -.00000415  00000+0 -11897-2 0  9998
2 47275  87.8952 352.7236 0001910 124.9459 235.1849 13.12442108263312
ONEWEB-0130             
1 47276U 20100U   26157.82162030  .00000166  00000+0  42729-3 0  9991
2 47276  87.8951 352.7140 0001691  90.1640 269.9683 13.12444183263280
ONEWEB-0131             
1 47277U 20100V   26157.81822310  .00000142  00000+0  35979-3 0  9998
2 47277  87.8937 352.7341 0001741  88.0156 272.1172 13.12445197263322
